IRIDIUM 39              
1 25042U 97069D   25131.32643845  .00000699  00000+0  17794-3 0  9995
2 25042  86.3946 226.9221 0019959  73.1470 287.1921 14.49178438443628
IRIDIUM 38              
1 25043U 97069E   25131.56972505  .00000552  00000+0  17566-3 0  9995
2 25043  86.3959 248.5533 0001964 150.0525 210.0786 14.38087423440691
IRIDIUM 42              
1 25077U 97077A   25131.60065139  .00000456  00000+0  14942-3 0  9990
2 25077  86.3954 254.6672 0001658 111.2290 248.9084 14.36324170435947
IRIDIUM 44              
1 25078U 97077B   25131.72330802  .00000450  00000+0  13601-3 0  9991
2 25078  86.3978 236.6317 0003678 119.6165 240.5401 14.40213542438485
IRIDIUM 45              
1 25104U 97082A   25131.55924910  .00022741  00000+0  83276-3 0  9999
2 25104  86.3596  65.6572 0123192 108.3235 253.1455 15.20920757446470
IRIDIUM 24              
1 25105U 97082B   25131.60447342  .00000668  00000+0  19742-3 0  9996
2 25105  86.3878  95.8183 0010727 187.5573 172.5467 14.42062914437944
IRIDIUM 51              
1 25262U 98018A   25131.54463491  .00048188  00000+0  11372-2 0  9995
2 25262  86.3842  73.9401 0093383  33.4569 327.2534 15.37153958441394
IRIDIUM 57              
1 25273U 98019B   25131.51623075  .00000389  00000+0  12737-3 0  9999
2 25273  86.3978 160.6232 0002269  93.6874 266.4583 14.35869630419528
